     2.100          NAVIGATION                              RINEX VERSION / TYPE
fic2rin                                 09/18/2016 00:05:26 PGM / RUN BY / DATE
                                                            END OF HEADER
20 16  9 17  1 59 44.0  .436018686742D-03  .204636307899D-11  .000000000000D+00
     .810000000000D+02 -.619375000000D+02  .502770942428D-08  .199595429544D+01
    -.317394733429D-05  .464203627780D-02  .143926590681D-04  .515359466553D+04
     .525584000000D+06  .670552253723D-07  .307032596884D+01 -.100582838058D-06
     .926973675580D+00  .835625000000D+02  .144005351233D+01 -.819105547605D-08
    -.126433837905D-09  .100000000000D+01  .191400000000D+04  .000000000000D+00
     .240000000000D+01  .000000000000D+00 -.838190317154D-08  .810000000000D+02
     .525456000000D+06  .400000000000D+01
20 16  9 17  3 59 44.0  .436033122241D-03  .204636307899D-11  .000000000000D+00
     .820000000000D+02 -.500937500000D+02  .488734643474D-08  .304593728703D+01
    -.283867120743D-05  .464094197378D-02  .141263008118D-04  .515359756279D+04
     .532784000000D+06  .670552253723D-07  .307026742140D+01 -.242143869400D-07
     .926972810996D+00  .872187500000D+02  .144030151205D+01 -.814426781287D-08
    -.146077513286D-09  .100000000000D+01  .191400000000D+04  .000000000000D+00
     .240000000000D+01  .000000000000D+00 -.838190317154D-08  .820000000000D+02
     .525606000000D+06  .400000000000D+01
 1 16  9 17  4  0  0.0  .342335551977D-04  .136424205266D-11  .000000000000D+00
     .820000000000D+02 -.677500000000D+02  .477912764128D-08  .180623403223D+01
    -.359304249287D-05  .587922672275D-02  .361911952496D-05  .515370021439D+04
     .532800000000D+06 -.353902578354D-07  .211724281603D+01  .149011611938D-07
     .965057365507D+00  .312312500000D+03  .550677963685D+00 -.849071081504D-08
    -.394659296287D-09  .100000000000D+01  .191400000000D+04  .000000000000D+00
     .240000000000D+01  .000000000000D+00  .512227416039D-08  .820000000000D+02
     .525606000000D+06  .400000000000D+01
 2 16  9 17  4  0  0.0  .551866367459D-03 -.488853402203D-11  .000000000000D+00
     .138000000000D+03 -.753437500000D+02  .509699802471D-08  .225905216250D+01
    -.406615436077D-05  .159511243692D-01  .322610139847D-05  .515363349533D+04
     .532800000000D+06  .149011611938D-07  .206928094001D+01 -.344589352608D-06
     .943844637889D+00  .306468750000D+03 -.208549581281D+01 -.847856745208D-08
    -.301798285396D-09  .100000000000D+01  .191400000000D+04  .000000000000D+00
     .240000000000D+01  .000000000000D+00 -.204890966415D-07  .138000000000D+03
     .525606000000D+06  .400000000000D+01
 3 16  9 17  4  0  0.0 -.875494442880D-04 -.216004991671D-11  .000000000000D+00
     .530000000000D+02 -.405000000000D+02  .424910556373D-08  .925670361863D+00
    -.225752592087D-05  .167445396073D-03  .134967267513D-04  .515362843323D+04
     .532800000000D+06 -.242143869400D-07 -.312437171300D+01  .316649675369D-07
     .959979676333D+00  .122781250000D+03  .295706823068D+00 -.783639784600D-08
    -.278583032673D-10  .100000000000D+01  .191400000000D+04  .000000000000D+00
     .240000000000D+01  .000000000000D+00  .139698386192D-08  .530000000000D+02
     .525606000000D+06  .400000000000D+01
 4 16  9 17  4  0  0.0  .283122062683D-06  .306954461848D-11  .000000000000D+00
     .160000000000D+02  .803750000000D+02  .489877548223D-08 -.905864165610D+00
     .405125319958D-05  .840932899155D-02  .580586493015D-05  .515360094643D+04
     .532800000000D+06 -.102445483208D-06 -.196509217773D+01 -.931322574615D-08
     .966145981367D+00  .275250000000D+03 -.102827466098D+01 -.847892460982D-08
     .653598653579D-09  .100000000000D+01  .191400000000D+04  .000000000000D+00
     .485000000000D+01  .630000000000D+02 -.372529029846D-08  .160000000000D+02
     .525606000000D+06  .400000000000D+01
 5 16  9 17  4  0  0.0 -.905697233975D-04  .261479726760D-11  .000000000000D+00
     .136000000000D+03 -.258125000000D+02  .451733102211D-08 -.154755182248D+01
    -.160187482834D-05  .474806362763D-02  .131540000439D-04  .515360485840D+04
     .532800000000D+06  .502914190292D-07 -.313777550094D+01 -.838190317154D-07
     .947009168150D+00  .113093750000D+03  .508216999038D+00 -.795783147562D-08
    -.571452374714D-11  .100000000000D+01  .191400000000D+04  .000000000000D+00
     .240000000000D+01  .000000000000D+00 -.107102096081D-07  .136000000000D+03
     .525606000000D+06  .400000000000D+01
 6 16  9 17  4  0  0.0  .247404444963D-03  .511590769747D-11  .000000000000D+00
     .180000000000D+02 -.702812500000D+02  .465233664564D-08  .229241623147D+01
    -.355951488018D-05  .207871431485D-03  .386312603951D-05  .515376447678D+04
     .532800000000D+06 -.745058059692D-08  .210883278087D+01 -.204890966415D-07
     .964862930528D+00  .305343750000D+03 -.156681425062D+01 -.840463580110D-08
    -.326085011321D-09  .100000000000D+01  .191400000000D+04  .000000000000D+00
     .240000000000D+01  .000000000000D+00  .419095158577D-08  .180000000000D+02
     .525606000000D+06  .400000000000D+01
 7 16  9 17  4  0  0.0  .426669605076D-03 -.295585778076D-11  .000000000000D+00
     .150000000000D+02 -.645312500000D+02  .508128308441D-08  .113074946697D+01
    -.316835939884D-05  .100144739263D-01  .435113906860D-05  .515362385178D+04
     .532800000000D+06  .353902578354D-07 -.100726915571D+01  .987201929092D-07
     .964833382509D+00  .299750000000D+03 -.263098596617D+01 -.862750222724D-08
    -.554308803472D-09  .100000000000D+01  .191400000000D+04  .000000000000D+00
     .240000000000D+01  .000000000000D+00 -.111758708954D-07  .150000000000D+02
     .525606000000D+06  .400000000000D+01
 8 16  9 17  4  0  0.0 -.320975668728D-04 -.147792889038D-11  .000000000000D+00
     .108000000000D+03  .965937500000D+02  .460412035152D-08 -.154217474419D+01
     .506453216076D-05  .172907940578D-02  .703148543835D-05  .515374592400D+04
     .532800000000D+06 -.279396772385D-07  .105538986074D+01  .745058059692D-08
     .964187809927D+00  .246500000000D+03 -.101629931452D+01 -.828963101069D-08
     .520378818724D-09  .100000000000D+01  .191400000000D+04  .000000000000D+00
     .240000000000D+01  .000000000000D+00  .512227416039D-08  .108000000000D+03
     .525606000000D+06  .400000000000D+01
 9 16  9 17  4  0  0.0  .207771081477D-03  .727595761418D-11  .000000000000D+00
     .310000000000D+02  .873750000000D+02  .501485174585D-08 -.239441656193D+01
     .465847551823D-05  .534232473001D-03  .684708356857D-05  .515378444862D+04
     .532800000000D+06 -.596046447754D-07 -.208626004122D+01 -.558793544769D-08
     .954441660966D+00  .245656250000D+03  .204344011890D+01 -.839177812267D-08
     .663241912402D-09  .100000000000D+01  .191400000000D+04  .000000000000D+00
     .240000000000D+01  .000000000000D+00  .139698386192D-08  .310000000000D+02
     .525606000000D+06  .400000000000D+01
10 16  9 17  4  0  0.0 -.984310172498D-04 -.454747350886D-11  .000000000000D+00
     .770000000000D+02 -.404062500000D+02  .418053127877D-08 -.343762311217D+00
    -.201724469662D-05  .173634651583D-02  .148396939039D-04  .515369052505D+04
     .532800000000D+06  .577419996262D-07 -.312828033314D+01 -.372529029846D-08
     .960195929272D+00  .922187500000D+02 -.285052728338D+01 -.787389940809D-08
    -.475019786481D-10  .100000000000D+01  .191400000000D+04  .000000000000D+00
     .240000000000D+01  .000000000000D+00  .232830643654D-08  .770000000000D+02
     .525606000000D+06  .400000000000D+01
11 16  9 17  4  0  0.0 -.664370600134D-03 -.113686837722D-11  .000000000000D+00
     .310000000000D+02  .162500000000D+01  .658384567217D-08  .123480912820D+01
    -.329688191414D-06  .168228367111D-01  .146962702274D-05  .515366962814D+04
     .532800000000D+06 -.152736902237D-06  .173214541216D+01 -.309199094772D-06
     .897520285071D+00  .319000000000D+03  .157401858380D+01 -.956218401763D-08
    -.821462788651D-11  .100000000000D+01  .191400000000D+04  .000000000000D+00
     .240000000000D+01  .000000000000D+00 -.121071934700D-07  .310000000000D+02
     .525606000000D+06  .400000000000D+01
12 16  9 17  4  0  0.0  .388693530113D-03  .341060513165D-12  .000000000000D+00
     .340000000000D+02 -.593750000000D+00  .357479176157D-08  .533841678386D+00
    -.335276126862D-07  .603973038960D-02  .146180391312D-04  .515366775703D+04
     .532800000000D+06 -.335276126862D-07  .709640421086D-01  .912696123123D-07
     .990504083797D+00  .112687500000D+03  .786261330415D+00 -.758888753620D-08
    -.273939982128D-09  .100000000000D+01  .191400000000D+04  .000000000000D+00
     .240000000000D+01  .000000000000D+00 -.125728547573D-07  .340000000000D+02
     .525606000000D+06  .400000000000D+01
13 16  9 17  4  0  0.0 -.441693700850D-04 -.216004991671D-11  .000000000000D+00
     .130000000000D+02  .846875000000D+02  .473591155544D-08  .210985783733D+01
     .428408384323D-05  .402231048793D-02  .563450157642D-05  .515368157578D+04
     .532800000000D+06  .782310962677D-07 -.196378535447D+01  .279396772385D-07
     .970624128677D+00  .277375000000D+03  .196001501666D+01 -.823891461244D-08
     .561451958156D-09  .100000000000D+01  .191400000000D+04  .000000000000D+00
     .240000000000D+01  .000000000000D+00 -.111758708954D-07  .130000000000D+02
     .525606000000D+06  .400000000000D+01
14 16  9 17  4  0  0.0 -.354498624802D-04 -.193267624127D-11  .000000000000D+00
     .660000000000D+02  .897187500000D+02  .485413076546D-08 -.281852543106D+01
     .458024442196D-05  .877464667428D-02  .642053782940D-05  .515358373642D+04
     .532800000000D+06  .217929482460D-06 -.200156546110D+01 -.108033418655D-06
     .963153981812D+00  .254843750000D+03 -.194542075280D+01 -.827605901679D-08
     .676456748567D-09  .100000000000D+01  .191400000000D+04  .000000000000D+00
     .240000000000D+01  .000000000000D+00 -.931322574615D-08  .660000000000D+02
     .525606000000D+06  .400000000000D+01
